INTELSAT 26         [PM]
1 24732C 97007A   21152.44791667  .00000108  00000-0  00000-0 0  1526
2 24732   9.5301  40.9742 0011216  11.1458  62.9149  1.00270787    19
INTELSAT 26             
1 24732C 97007A   21158.00000000  .00000108  00000-0  00000-0 0  1584
2 24732   9.5404  40.9538 0003414  51.0583 227.2722  1.00268456    12
INTELSAT 26             
1 24732C 97007A   21161.00000000  .00000108  00000-0  00000-0 0  1612
2 24732   9.5445  40.9446 0003479  53.5166 227.7968  1.00268597    13
GALAXY 25           [PM]
1 24812C 97026A   21157.64056713  .00000245  00000-0  00000-0 0  1576
2 24812   2.7712  87.2955 0006341   5.0913  66.3730  1.00270994    14
GALAXY 25               
1 24812C 97026A   21158.00000000  .00000245  00000-0  00000-0 0  1586
2 24812   2.7724  87.2942 0005940   2.5629 198.6478  1.00272189    19
GALAXY 25               
1 24812C 97026A   21161.00000000  .00000245  00000-0  00000-0 0  1614
2 24812   2.7811  87.2782 0005925   5.2882 198.9009  1.00273770    12
INTELSAT 5              
1 24916C 97046A   21158.00000000  .00000186  00000-0  00000-0 0  1587
2 24916   6.4406  63.4906 0005609  12.3833  42.7207  1.00271781    12
INTELSAT 5          [PM]
1 24916C 97046A   21158.50114583  .00000186  00000-0  00000-0 0  1584
2 24916   6.4422  63.4909 0002899 359.4218 236.5858  1.00272057    15
INTELSAT 5              
1 24916C 97046A   21161.00000000  .00000186  00000-0  00000-0 0  1615
2 24916   6.4472  63.4837 0005613  12.3305  45.7295  1.00272677    12
GALAXY 11               
1 26038C 99071A   21158.00000000 -.00000072  00000-0  00000-0 0  1589
2 26038   2.0587  92.4288 0000058 232.7101 197.3754  1.00271097    19
GALAXY 11               
1 26038C 99071A   21161.00000000 -.00000072  00000-0  00000-0 0  1617
2 26038   2.0677  92.3730 0000087 201.8891 231.2107  1.00271109    19
INTELSAT 9          [PM]
1 26451C 00043A   21152.69817130 -.00000191  00000-0  00000-0 0  1524
2 26451   6.4163  63.7163 0004825  32.5353 355.4463  1.00275978    16
INTELSAT 9              
1 26451C 00043A   21158.00000000 -.00000191  00000-0  00000-0 0  1581
2 26451   6.4281  63.6765 0003910 357.2681 144.6754  1.00270111    14
INTELSAT 9              
1 26451C 00043A   21161.00000000 -.00000191  00000-0  00000-0 0  1619
2 26451   6.4346  63.6673 0003705 357.2212 147.6790  1.00269366    19
INTELSAT 12         [PM]
1 26590C 00068A   21155.52594907  .00000104  00000-0  00000-0 0  1550
2 26590   3.7636  83.1175 0008987   0.8154  62.8111  1.00271437    19
INTELSAT 12             
1 26590C 00068A   21158.00000000  .00000104  00000-0  00000-0 0  1585
2 26590   3.7707  83.0769 0007967   0.1459 236.6177  1.00272989    10
INTELSAT 12             
1 26590C 00068A   21161.00000000  .00000104  00000-0  00000-0 0  1613
2 26590   3.7791  83.0638 0007901   2.4342 237.3103  1.00273507    16
INTELSAT 1R             
1 26608C 00072A   21158.00000000 -.00000047  00000-0  00000-0 0  1587
2 26608   3.5742  83.5374 0000518 183.5888 145.5803  1.00271134    16
INTELSAT 1R             
1 26608C 00072A   21161.00000000 -.00000047  00000-0  00000-0 0  1615
2 26608   3.5830  83.5465 0000516 187.9390 144.1818  1.00271132    18
INTELSAT 10             
1 26766C 01019A   21158.00000000  .00000074  00000-0  00000-0 0  1583
2 26766   4.7017  76.3784 0005736  11.9094 337.4002  1.00614584    17
INTELSAT 10         [PM]
1 26766C 01019A   21160.77547454  .00000101  00000-0  00000-0 0  1603
2 26766   4.7083  70.4560 0006943  16.5630 264.2808  1.00446992    12
INTELSAT 10             
1 26766C 01019A   21161.00000000  .00000102  00000-0  00000-0 0  1613
2 26766   4.7105  76.3753 0006285 340.2743  15.6458  1.00562728    12
INTELSAT 901            
1 26824C 01024A   21158.00000000 -.00000112  00000-0  00000-0 0  1588
2 26824   0.0152  36.6920 0000782  75.4825 115.9536  1.00270970    13
INTELSAT 901            
1 26824C 01024A   21161.00000000 -.00000112  00000-0  00000-0 0  1616
2 26824   0.0216  54.1500 0000713  39.1306 137.7988  1.00270706    18
INTELSAT 902            
1 26900C 01039A   21158.00000000 -.00000192  00000-0  00000-0 0  1587
2 26900   1.4757  92.9641 0004065   1.7088 110.8447  1.00271254    11
INTELSAT 902            
1 26900C 01039A   21161.00000000 -.00000192  00000-0  00000-0 0  1615
2 26900   1.4844  92.9398 0003325   1.4848 114.0629  1.00272018    13
INTELSAT 902        [PM]
1 26900C 01039A   21165.84987269 -.00000192  00000-0  00000-0 0  1656
2 26900   1.4942  93.0667 0003293   1.6985  64.4421  1.00272768    11
INTELSAT 904            
1 27380C 02007A   21158.00000000 -.00000123  00000-0  00000-0 0  1580
2 27380   2.3119  89.7799 0003365 352.1543 144.1907  1.00272239    10
INTELSAT 904        [PM]
1 27380C 02007A   21158.29550926 -.00000123  00000-0  00000-0 0  1588
2 27380   2.3127  89.7688 0002999 353.3804 249.6508  1.00272818    12
INTELSAT 904            
1 27380C 02007A   21161.00000000 -.00000123  00000-0  00000-0 0  1618
2 27380   2.3207  89.7568 0003288 355.2770 144.0547  1.00271921    18
INTELSAT 905            
1 27438C 02027A   21158.00000000 -.00000094  00000-0  00000-0 0  1583
2 27438   2.1333  90.5876 0002755 336.9150 163.6062  1.00272601    13
INTELSAT 905        [PM]
1 27438C 02027A   21159.75805556 -.00000094  00000-0  00000-0 0  1596
2 27438   2.1384  90.5620 0002651 342.3820  72.8026  1.00272753    15
INTELSAT 905            
1 27438C 02027A   21161.00000000 -.00000094  00000-0  00000-0 0  1611
2 27438   2.1420  90.5664 0002638 339.8984 163.6104  1.00272388    11
GALAXY 3C               
1 27445C 02030A   21158.00000000 -.00000061  00000-0  00000-0 0  1589
2 27445   0.0190 315.6758 0001729  13.6008 191.2847  1.00270883    18
GALAXY 3C               
1 27445C 02030A   21161.00000000 -.00000061  00000-0  00000-0 0  1617
2 27445   0.0159 326.6462 0001725 359.6165 197.2587  1.00271093    11
INTELSAT 906            
1 27513C 02041A   21158.00000000  .00000105  00000-0  00000-0 0  1585
2 27513   1.1409  94.7620 0003267 352.4080 232.5999  1.00273063    15
INTELSAT 906            
1 27513C 02041A   21161.00000000  .00000105  00000-0  00000-0 0  1613
2 27513   1.1498  94.7459 0003158 353.5441 234.4365  1.00271503    10
INTELSAT 906        [PM]
1 27513C 02041A   21167.03628472  .00000105  00000-0  00000-0 0  1677
2 27513   1.1605  92.9629 0003156 351.5166 257.2728  1.00275496    10
GALAXY 12               
1 27715C 03013B   21158.00000000  .00000149  00000-0  00000-0 0  1587
2 27715   2.3470  89.2779 0001714 357.0304  40.3028  1.00272879    11
GALAXY 12           [PM]
1 27715C 03013B   21160.50795139  .00000149  00000-0  00000-0 0  1602
2 27715   2.3543  89.2601 0001514 343.3062 239.3826  1.00271477    12
GALAXY 12               
1 27715C 03013B   21161.00000000  .00000149  00000-0  00000-0 0  1615
2 27715   2.3557  89.2635 0001674 355.4668  44.8399  1.00271603    12
GALAXY 23               
1 27854C 03034A   21158.00000000  .00000084  00000-0  00000-0 0  1582
2 27854   0.0479 135.4998 0002814 303.7502  55.3743  1.00272980    19
GALAXY 23               
1 27854C 03034A   21161.00000000  .00000182  00000-0  00000-0 0  1619
2 27854   0.0540 121.4709 0002712 316.5502  59.5462  1.00270167    11
GALAXY 23           [PM]
1 27854C 03034A   21161.39071759  .00000103  00000-0  00000-0 0  1613
2 27854   0.0143 288.6932 0002990 152.2195 197.6961  1.00274652    16
GALAXY 13           [PM]
1 27954C 03044A   21150.93957176  .00000138  00000-0  00000-0 0  1505
2 27954   0.0404 114.1343 0000264 341.4062   4.3456  1.00270669    10
GALAXY 13               
1 27954C 03044A   21158.00000000  .00000125  00000-0  00000-0 0  1580
2 27954   0.0458 110.5032 0001046  94.6586 283.4434  1.00270398    16
GALAXY 13               
1 27954C 03044A   21161.00000000  .00000138  00000-0  00000-0 0  1612
2 27954   0.0460  95.0028 0000310 176.1404 220.4248  1.00271446    18
INTELSAT 10-02          
1 28358C 04022A   21158.00000000  .00000079  00000-0  00000-0 0  1584
2 28358   0.0197  49.8930 0000727  37.8446 166.8884  1.00270995    11
INTELSAT 10-02          
1 28358C 04022A   21161.00000000  .00000079  00000-0  00000-0 0  1612
2 28358   0.0176  46.5800 0000701  45.4955 165.5109  1.00270998    19
GALAXY 28               
1 28702C 05022A   21158.00000000  .00000093  00000-0  00000-0 0  1584
2 28702   0.0029 349.7279 0002998  13.9525 162.9441  1.00271594    13
GALAXY 28               
1 28702C 05022A   21161.00000000 -.00000166  00000-0  00000-0 0  1614
2 28702   0.0097  28.4884 0003031 334.1510 166.9384  1.00271175    17
GALAXY 28           [PM]
1 28702C 05022A   21161.32259259 -.00000109  00000-0  00000-0 0  1618
2 28702   0.0029   4.4234 0003161 353.0595 288.5458  1.00273214    11
GALAXY 14           [PM]
1 28790C 05030A   21149.33353009 -.00000139  00000-0  00000-0 0  1498
2 28790   0.3135  95.0657 0003167 321.0557 278.2274  1.00508901    19
GALAXY 14               
1 28790C 05030A   21158.00000000 -.00000098  00000-0  00000-0 0  1586
2 28790   0.3304  94.7519 0002572 323.4392 172.0085  1.00507704    13
GALAXY 14               
1 28790C 05030A   21161.00000000 -.00000082  00000-0  00000-0 0  1617
2 28790   0.3395  94.7589 0002481 325.0490 175.8944  1.00507398    10
GALAXY 15               
1 28884C 05041A   21158.00000000  .00000169  00000-0  00000-0 0  1580
2 28884   0.0209 291.2169 0001673 141.3500  50.0470  1.00272572    17
GALAXY 15           [PM]
1 28884C 05041A   21160.50244213  .00000171  00000-0  00000-0 0  1600
2 28884   0.0122 307.3707 0001528 122.5682 236.0331  1.00270644    19
GALAXY 15               
1 28884C 05041A   21161.00000000  .00000169  00000-0  00000-0 0  1618
2 28884   0.0104 310.7375 0001503 118.6345  56.2093  1.00270701    14
GALAXY 16               
1 29236C 06023A   21158.00000000 -.00003217  00000-0  00000-0 0  1581
2 29236   0.0242  68.3122 0002755  15.8638  72.4540  1.00270059    11
